YOTSUBA-KULOVER         
1 65941U 98067XN  26067.37766284  .00283648  00000+0  14529-2 0  9992
2 65941  51.6211  64.0949 0005726  58.2301 301.9258 15.79913922 23296
E-KAGAKU-1              
1 65943U 98067XQ  26067.38183339  .00271841  00000+0  14157-2 0  9998
2 65943  51.6232  64.1404 0006096  65.6433 294.5204 15.79578818 23296
HRC MONOBLOCK CAMERA    
1 66052U 98067XR  26067.22897494  .00076624  00000+0  85769-3 0  9997
2 66052  51.6274  72.9039 0003616  85.3057 274.8350 15.62016633 22163
HTV-X1                  
1 66174U 25241A   26066.77087839  .00014056  00000+0  26707-3 0  9997
2 66174  51.6320  81.8427 0008117 167.9196 192.1989 15.48514260554479
SZ-21 MODULE            
1 66515U 25246C   26067.48169489  .00048562  00000+0  41839-3 0  9994
2 66515  41.4736 210.7960 0001377 295.9249  64.1451 15.68439645 17889
SHENZHOU-22             
1 66645U 25272A   26067.43571014  .00028893  00000+0  34207-3 0  9999
2 66645  41.4663 215.7910 0006977 265.0647  94.9395 15.60585348269019
SOYUZ-MS 28             
1 66664U 25275A   26067.41623042  .00011291  00000+0  21617-3 0  9995
2 66664  51.6319  78.6521 0008065 170.0958 190.0190 15.48526204556141
DUPLEX                  
1 66906U 98067XS  26067.43022829  .00044619  00000+0  62980-3 0  9999
2 66906  51.6288  75.7492 0002272 106.3589 253.7653 15.56119236 14935
ISS OBJECT XT           
1 66907U 98067XT  26067.30898696  .00215395  00000+0  18024-2 0  9999
2 66907  51.6249  72.6759 0004713  69.3241 290.8261 15.68765418 14962
ISS OBJECT XU           
1 66908U 98067XU  26067.24358830  .00214540  00000+0  17893-2 0  9998
2 66908  51.6246  72.9860 0004911  71.7703 288.3828 15.68848873 14953
SILVERSAT               
1 66909U 98067XV  26067.24740244  .00259539  00000+0  19186-2 0  9997
2 66909  51.6249  72.2602 0005590  67.4471 292.7118 15.71604056 14961
ISS OBJECT XW           
1 66910U 98067XW  26067.30329623  .00193965  00000+0  16698-2 0  9995
2 66910  51.6242  72.6301 0005106  77.4385 282.7182 15.68140942 14969
